{
  "type": "FeatureCollection",
  "features": [
    {
      "type": "Feature",
      "properties": {
        "norad_id": 38867,
        "name": "INTELSAT 23 (IS-23)",
        "group": "intelsat",
        "lat": 0.03154498296292061,
        "lon": 175.6313065962103,
        "alt_km": 35782.8486852902,
        "timestamp": "2025-12-12T09:49:08.395759+00:00",
        "meta_object_name": "INTELSAT 23 (IS-23)",
        "meta_object_id": "2012-057A",
        "meta_epoch": "2025-12-12T02:57:17.535168",
        "meta_mean_motion": 1.00272877,
        "meta_eccentricity": 0.000106,
        "meta_inclination": 0.0432,
        "meta_ra_of_asc_node": 96.5313,
        "meta_arg_of_pericenter": 127.5324,
        "meta_mean_anomaly": 208.3374,
        "meta_ephemeris_type": 0,
        "meta_classification_type": "U",
        "meta_norad_cat_id": 38867,
        "meta_element_set_no": 999,
        "meta_rev_at_epoch": 4807,
        "meta_bstar": 0,
        "meta_mean_motion_dot": -2.75e-06,
        "meta_mean_motion_ddot": 0,
        "tle_line1": "1 38867U 12057A   25346.12311962 -.00000275  00000+0  00000+0 0  9995",
        "tle_line2": "2 38867   0.0432  96.5313 0001060 127.5324 208.3374  1.00272877 48071"
      },
      "geometry": {
        "type": "Point",
        "coordinates": [
          175.6313065962103,
          0.03154498296292061
        ]
      }
    },
    {
      "type": "Feature",
      "properties": {
        "norad_id": 39360,
        "name": "FM-6",
        "group": "intelsat",
        "lat": 0.008332377642722107,
        "lon": 112.46061080343945,
        "alt_km": 35780.51566728759,
        "timestamp": "2025-12-12T09:49:08.395772+00:00",
        "meta_object_name": "FM-6",
        "meta_object_id": "2013-058A",
        "meta_epoch": "2025-12-12T03:46:38.737056",
        "meta_mean_motion": 1.002731,
        "meta_eccentricity": 0.0002895,
        "meta_inclination": 0.0112,
        "meta_ra_of_asc_node": 74.0155,
        "meta_arg_of_pericenter": 103.1102,
        "meta_mean_anomaly": 204.4975,
        "meta_ephemeris_type": 0,
        "meta_classification_type": "U",
        "meta_norad_cat_id": 39360,
        "meta_element_set_no": 999,
        "meta_rev_at_epoch": 4419,
        "meta_bstar": 0,
        "meta_mean_motion_dot": -8e-08,
        "meta_mean_motion_ddot": 0,
        "tle_line1": "1 39360U 13058A   25346.15739279 -.00000008  00000+0  00000+0 0  9998",
        "tle_line2": "2 39360   0.0112  74.0155 0002895 103.1102 204.4975  1.00273100 44194"
      },
      "geometry": {
        "type": "Point",
        "coordinates": [
          112.46061080343945,
          0.008332377642722107
        ]
      }
    },
    {
      "type": "Feature",
      "properties": {
        "norad_id": 40271,
        "name": "INTELSAT 30 (IS-30)",
        "group": "intelsat",
        "lat": 0.02547119112973393,
        "lon": 133.583944731025,
        "alt_km": 35781.18867875007,
        "timestamp": "2025-12-12T09:49:08.395783+00:00",
        "meta_object_name": "INTELSAT 30 (IS-30)",
        "meta_object_id": "2014-062A",
        "meta_epoch": "2025-12-11T08:43:38.851968",
        "meta_mean_motion": 1.00271845,
        "meta_eccentricity": 0.00015432,
        "meta_inclination": 0.0188,
        "meta_ra_of_asc_node": 35.8315,
        "meta_arg_of_pericenter": 56.6474,
        "meta_mean_anomaly": 23.6951,
        "meta_ephemeris_type": 0,
        "meta_classification_type": "U",
        "meta_norad_cat_id": 40271,
        "meta_element_set_no": 999,
        "meta_rev_at_epoch": 490,
        "meta_bstar": 0,
        "meta_mean_motion_dot": -1.44e-06,
        "meta_mean_motion_ddot": 0,
        "tle_line1": "1 40271U 14062A   25345.36364412 -.00000144  00000+0  00000+0 0  9993",
        "tle_line2": "2 40271   0.0188  35.8315 0001543  56.6474  23.6951  1.00271845  4900"
      },
      "geometry": {
        "type": "Point",
        "coordinates": [
          133.583944731025,
          0.02547119112973393
        ]
      }
    },
    {
      "type": "Feature",
      "properties": {
        "norad_id": 40333,
        "name": "DIRECTV 14",
        "group": "intelsat",
        "lat": 0.00773437814274971,
        "lon": 129.4252170242197,
        "alt_km": 35784.78715122488,
        "timestamp": "2025-12-12T09:49:08.395795+00:00",
        "meta_object_name": "DIRECTV 14",
        "meta_object_id": "2014-078B",
        "meta_epoch": "2025-12-11T14:45:07.933824",
        "meta_mean_motion": 1.00273916,
        "meta_eccentricity": 4.131e-05,
        "meta_inclination": 0.0158,
        "meta_ra_of_asc_node": 316.5152,
        "meta_arg_of_pericenter": 238.3752,
        "meta_mean_anomaly": 7.7536,
        "meta_ephemeris_type": 0,
        "meta_classification_type": "U",
        "meta_norad_cat_id": 40333,
        "meta_element_set_no": 999,
        "meta_rev_at_epoch": 4016,
        "meta_bstar": 0,
        "meta_mean_motion_dot": -1.18e-06,
        "meta_mean_motion_ddot": 0,
        "tle_line1": "1 40333U 14078B   25345.61467516 -.00000118  00000+0  00000+0 0  9997",
        "tle_line2": "2 40333   0.0158 316.5152 0000413 238.3752   7.7536  1.00273916 40168"
      },
      "geometry": {
        "type": "Point",
        "coordinates": [
          129.4252170242197,
          0.00773437814274971
        ]
      }
    },
    {
      "type": "Feature",
      "properties": {
        "norad_id": 40663,
        "name": "DIRECTV 15",
        "group": "intelsat",
        "lat": 0.03333648847696542,
        "lon": 125.76878733158682,
        "alt_km": 35786.45473515344,
        "timestamp": "2025-12-12T09:49:08.395807+00:00",
        "meta_object_name": "DIRECTV 15",
        "meta_object_id": "2015-026A",
        "meta_epoch": "2025-12-11T21:34:58.682784",
        "meta_mean_motion": 1.00271604,
        "meta_eccentricity": 2.2e-05,
        "meta_inclination": 0.0402,
        "meta_ra_of_asc_node": 85.3093,
        "meta_arg_of_pericenter": 150.3651,
        "meta_mean_anomaly": 66.0596,
        "meta_ephemeris_type": 0,
        "meta_classification_type": "U",
        "meta_norad_cat_id": 40663,
        "meta_element_set_no": 999,
        "meta_rev_at_epoch": 3858,
        "meta_bstar": 0,
        "meta_mean_motion_dot": -9.4e-07,
        "meta_mean_motion_ddot": 0,
        "tle_line1": "1 40663U 15026A   25345.89929031 -.00000094  00000+0  00000+0 0  9995",
        "tle_line2": "2 40663   0.0402  85.3093 0000220 150.3651  66.0596  1.00271604 38587"
      },
      "geometry": {
        "type": "Point",
        "coordinates": [
          125.76878733158682,
          0.03333648847696542
        ]
      }
    },
    {
      "type": "Feature",
      "properties": {
        "norad_id": 40664,
        "name": "SKY MEXICO-1",
        "group": "intelsat",
        "lat": 0.03050244253813439,
        "lon": 149.84604315493635,
        "alt_km": 35792.29851817658,
        "timestamp": "2025-12-12T09:49:08.395819+00:00",
        "meta_object_name": "SKY MEXICO-1",
        "meta_object_id": "2015-026B",
        "meta_epoch": "2025-12-12T02:50:03.228288",
        "meta_mean_motion": 1.00272492,
        "meta_eccentricity": 0.0002555,
        "meta_inclination": 0.0349,
        "meta_ra_of_asc_node": 76.9861,
        "meta_arg_of_pericenter": 199.2646,
        "meta_mean_anomaly": 128.5655,
        "meta_ephemeris_type": 0,
        "meta_classification_type": "U",
        "meta_norad_cat_id": 40664,
        "meta_element_set_no": 999,
        "meta_rev_at_epoch": 3857,
        "meta_bstar": 0,
        "meta_mean_motion_dot": -2.25e-06,
        "meta_mean_motion_ddot": 0,
        "tle_line1": "1 40664U 15026B   25346.11809292 -.00000225  00000+0  00000+0 0  9994",
        "tle_line2": "2 40664   0.0349  76.9861 0002555 199.2646 128.5655  1.00272492 38571"
      },
      "geometry": {
        "type": "Point",
        "coordinates": [
          149.84604315493635,
          0.03050244253813439
        ]
      }
    },
    {
      "type": "Feature",
      "properties": {
        "norad_id": 40874,
        "name": "INTELSAT 34 (IS-34)",
        "group": "intelsat",
        "lat": -0.01154323436865464,
        "lon": 173.13108492688005,
        "alt_km": 35784.472064639594,
        "timestamp": "2025-12-12T09:49:08.395831+00:00",
        "meta_object_name": "INTELSAT 34 (IS-34)",
        "meta_object_id": "2015-039A",
        "meta_epoch": "2025-12-12T02:56:40.092864",
        "meta_mean_motion": 1.00271624,
        "meta_eccentricity": 4.09e-05,
        "meta_inclination": 0.0134,
        "meta_ra_of_asc_node": 329.9226,
        "meta_arg_of_pericenter": 193.1894,
        "meta_mean_anomaly": 266.6239,
        "meta_ephemeris_type": 0,
        "meta_classification_type": "U",
        "meta_norad_cat_id": 40874,
        "meta_element_set_no": 999,
        "meta_rev_at_epoch": 3774,
        "meta_bstar": 0,
        "meta_mean_motion_dot": -2.76e-06,
        "meta_mean_motion_ddot": 0,
        "tle_line1": "1 40874U 15039A   25346.12268626 -.00000276  00000+0  00000+0 0  9998",
        "tle_line2": "2 40874   0.0134 329.9226 0000409 193.1894 266.6239  1.00271624 37742"
      },
      "geometry": {
        "type": "Point",
        "coordinates": [
          173.13108492688005,
          -0.01154323436865464
        ]
      }
    }
  ]
}